COSMOS 2251 DEB         
1 35903U 93036AUS 17345.47684286  .00000930  00000-0  12759-3 0  9995
2 35903  74.0618 277.5788 0099882  15.5962 344.8249 14.76627146239479
